{"fetched_at":"2026-03-29T16:36:15Z","count":15609,"tles":[{"name":"STARLINK-36153","line1":"1 66934U 25286K   26087.78870202  .00024777  00000+0  84601-3 0  9996","line2":"2 66934  53.1578 269.5470 0001220  88.5989 271.5152 15.30194647 18343","category":"Starlink"}]}